GLOBALSTAR M084 [+]     
1 38040U 11080A   24017.63745877 -.00000082  00000+0  12326-3 0  9993
2 38040  51.9984 181.0398 0000992  77.8576   1.8995 12.62270331557436
GLOBALSTAR M080 [+]     
1 38041U 11080B   24017.77496556 -.00000089  00000+0  81050-4 0  9994
2 38041  52.0036 182.0470 0000865  72.3965  32.1232 12.62268532557576
GLOBALSTAR M092 [+]     
1 38043U 11080D   24017.92147208 -.00000051  00000+0  29697-3 0  9997
2 38043  52.0055 227.3469 0001202  71.1924  37.7199 12.62275822556750
GLOBALSTAR M090 [+]     
1 38044U 11080E   24017.65671920 -.00000084  00000+0  10880-3 0  9991
2 38044  51.9881 132.2704 0001070 122.8891 345.6829 12.62265301558385
GLOBALSTAR M086 [+]     
1 38045U 11080F   24017.51884744 -.00000088  00000+0  89957-4 0  9993
2 38045  51.9892 133.2021 0000630 188.4566 252.4791 12.62266487558311
